ENVISAT                 
1 27386U 02009A   23111.92856021  .00000428  00000+0  15407-3 0  9991
2 27386  98.2265  84.2574 0001315  84.0540 296.3890 14.38322589107876
IDEFIX & ARIANE 42P R/B 
1 27422U 02021B   23111.70276288  .00000582  00000+0  24365-3 0  9997
2 27422  98.4869  54.0609 0013186  51.6203 308.6162 14.29658121 91592
AQUA                    
1 27424U 02022A   23112.49942649  .00001622  00000+0  36337-3 0  9996
2 27424  98.2833  57.1251 0001534  53.3324  80.3238 14.57971591115244
CZ-4B R/B               
1 27432U 02024C   23112.07386417  .00000112  00000+0  81333-4 0  9996
2 27432  99.0289 146.0689 0051264 124.5020 262.5858 14.14203682 80525
MIDORI II (ADEOS-II)    
1 27597U 02056A   23111.83765397  .00000601  00000+0  26084-3 0  9998
2 27597  98.6444  56.6871 0001272 127.6738 232.4559 14.27872883 59954
H-2A R/B                
1 27601U 02056E   23112.27697948  .00000657  00000+0  25051-3 0  9993
2 27601  98.1912 106.5524 0072970  60.5794 311.0964 14.32324936 63366
CZ-4B R/B               
1 28059U 03049C   23112.24618746  .00000664  00000+0  16974-3 0  9992
2 28059  98.5560  59.4928 0049122 202.9904 156.9093 14.53127237 33633
CZ-2C R/B               
1 28222U 04012C   23111.69115968  .00010364  00000+0  51989-3 0  9994
2 28222  97.8010 104.5186 0043095  75.5138 285.0870 15.16701782 42888
SL-16 R/B               
1 28353U 04021B   23111.72827256  .00000266  00000+0  16414-3 0  9997
2 28353  70.9992 281.6889 0006202 214.8450 145.2267 14.14316269973930
CZ-4B R/B               
1 28415U 04035C   23111.60534172  .00005682  00000+0  33938-3 0  9997
2 28415  97.4742 150.0436 0048608  44.5811 315.9312 15.10484540 20078
CZ-2C R/B               
1 28480U 04046B   23111.66640044  .00000481  00000+0  19647-3 0  9996
2 28480  98.1065  80.7378 0142096  29.9222 330.9987 14.26004715958364
ARIANE 5 R/B            
1 28499U 04049H   23111.61653635  .00002225  00000+0  27373-3 0  9997
2 28499  98.1268 236.8232 0090961 158.2248 213.1709 14.81142840989685
CZ-2D R/B               
1 28738U 05024B   23111.95963940  .00009245  00000+0  46448-3 0  9990
2 28738  97.3550 115.0604 0010803 175.6884 184.4445 15.17435877978481
SUZAKU (ASTRO-EII)      
1 28773U 05025A   23111.27315344  .00014949  00000+0  54132-3 0  9990
2 28773  31.3766  82.5126 0004031 257.8693 102.1505 15.27184339982003
ALOS (DAICHI)           
1 28931U 06002A   23112.34477061  .00002356  00000+0  45797-3 0  9992
2 28931  97.9798  71.5433 0002271  63.0815 297.0622 14.64039301919606
H-2A R/B                
1 28932U 06002B   23111.40839899  .00005979  00000+0  50513-3 0  9996
2 28932  98.2462 175.3319 0083559 159.0710 201.3964 14.95796312936032
RESURS-DK 1             
1 29228U 06021A   23111.87263817  .00003654  00000+0  26658-3 0  9999
2 29228  69.9373  62.4028 0007403 289.6861  70.3502 15.04597214928743
GENESIS 1               
1 29252U 06029A   23111.78796249  .00010438  00000+0  40934-3 0  9995
2 29252  64.5182 135.7190 0031808 219.0058 140.8775 15.25731143925986
CZ-4B R/B               
1 29507U 06046C   23111.82552354  .00004370  00000+0  31764-3 0  9998
2 29507  97.6935 145.3661 0042014 271.5802  88.0611 15.03670399901171
CZ-2C R/B               
1 31114U 07010B   23111.66142831  .00000276  00000+0  14672-3 0  9994
2 31114  98.2725 268.9518 0060699 118.8128 241.9162 14.19556145830280
COSMO-SKYMED 1          
1 31598U 07023A   23112.19522147  .00000882  00000+0  11731-3 0  9991
2 31598  97.8871 296.4822 0001450  87.8250 272.3120 14.82156734858695
GENESIS 2               
1 31789U 07028A   23111.57125275  .00011154  00000+0  43836-3 0  9995
2 31789  64.4942 180.4542 0058715 269.5748  89.8650 15.24478397872777
COSMOS 2428             
1 31792U 07029A   23111.81026739 -.00000160  00000+0 -60294-4 0  9997
2 31792  70.9346 253.0979 0010425 310.3114  49.7095 14.12556155815477
SL-16 R/B               
1 31793U 07029B   23111.80921332  .00000414  00000+0  24041-3 0  9999
2 31793  70.9762 225.0490 0001836 255.0626 275.3122 14.14530096816462
KORONAS-FOTON           
1 33504U 09003A   23111.72317453  .00007553  00000+0  34955-3 0  9995
2 33504  82.4383 267.9185 0016292 280.7888  79.1512 15.19859655784732
CZ-2C R/B               
1 37731U 11030B   23111.72410876  .00001762  00000+0  25673-3 0  9990
2 37731  97.7100  88.1491 0058390 168.3233   4.9353 14.75888477634500
H-2A R/B                
1 38341U 12025E   23112.52087224  .00002508  00000+0  28750-3 0  9997
2 38341  98.4634 352.8027 0054548 130.7505 229.8463 14.85866371591603
CUSAT 2 & FALCON 9 R/B  
1 39271U 13055G   23111.71179095  .00038989  00000+0  73180-3 0  9991
2 39271  80.9541 211.7455 0459009 238.2409 117.3313 14.80374570502073
SHIJIAN-16 (SJ-16)      
1 39358U 13057A   23112.49822056  .00003260  00000+0  36570-3 0  9993
2 39358  74.9772   8.5559 0018605 140.0610 220.1933 14.87006445514919
CZ-2C R/B               
1 39364U 13059B   23111.55717296  .00022146  00000+0  53487-3 0  9997
2 39364  97.1105 160.0277 0032916 303.8398  55.9717 15.40612665527462
SL-4 R/B                
1 39679U 14021B   23111.84001774  .00006251  00000+0  28162-3 0  9996
2 39679  51.6134 316.8204 0154533 313.0574  45.7545 15.12330791495712
ALOS-2                  
1 39766U 14029A   23112.48699523 -.00000152  00000+0 -13486-4 0  9997
2 39766  97.9193 210.1784 0001625  91.8989 268.2416 14.79470598481323
SL-27 R/B               
1 40354U 14084B   23111.86753175  .00021198  00000+0  35910-3 0  9994
2 40354  74.7373  30.9675 0025829  55.5874 304.7780 15.51064386468274
YAOGAN-29               
1 41038U 15069A   23112.51306726  .00001102  00000+0  14825-3 0  9992
2 41038  98.0637 119.3563 0001636 123.4791 236.6580 14.81271482400037
ASTRO-H (HITOMI)        
1 41337U 16012A   23111.78261534  .00003493  00000+0  26155-3 0  9992
2 41337  31.0039 260.9892 0011542 259.5937 100.3398 15.00843582393459
HXMT (HUIYAN)           
1 42758U 17034A   23112.44263149  .00008004  00000+0  46543-3 0  9999
2 42758  43.0161  86.4208 0008211  35.7324 108.1515 15.12365018322939
CZ-2C R/B               
1 43521U 18054D   23111.78453072  .00010112  00000+0  45871-3 0  9999
2 43521  35.1523 245.0854 0072091 299.2168  60.1352 15.17720418266467
AEOLUS                  
1 43600U 18066A   23111.55957148  .00163302  11055-4  63142-3 0  9996
2 43600  96.7206 117.7886 0012721 110.6806 249.5832 15.87122912269983
SAOCOM 1A               
1 43641U 18076A   23112.47362029 -.00000238  00000+0 -23332-4 0  9993
2 43641  97.8884 299.7602 0001649  98.1022 262.0551 14.82151622245500
H-2A R/B                
1 43682U 18084L   23112.03761545  .00008292  00000+0  52981-3 0  9992
2 43682  98.8982 127.3444 0050569 330.3638  29.4722 15.07905987245755
SAOCOM 1B               
1 46265U 20059A   23112.09974951  .00001031  00000+0  13610-3 0  9990
2 46265  97.8897 298.4651 0001383  82.4308 277.7058 14.82157297142849
CSS (TIANHE)            
1 48274U 21035A   23112.21715674  .00022181  00000+0  23355-3 0  9992
2 48274  41.4701 136.7834 0005416 181.3818 274.5926 15.63731534113088
2022-019U               
1 51842U 22019U   23112.64342358  .00028371  00000+0  87084-3 0  9998
2 51842  97.5290 198.4047 0058522 179.1880 287.4938 15.31989701 63951
CZ-2C R/B               
1 52794U 22058K   23111.78081267  .00006949  00000+0  34814-3 0  9991
2 52794  50.1706 139.0638 0096246 240.9958 118.1324 15.14460929 48948
CZ-2C R/B               
1 53131U 22082D   23111.63324601  .00030007  00000+0  59581-3 0  9990
2 53131  97.3496 125.8378 0041514  84.9163 275.6823 15.45985302 43038
